NORAD_CAT_ID,OBJECT_NAME,OBJECT_TYPE,EPOCH,MEAN_MOTION,ECCENTRICITY,INCLINATION,RA_OF_ASC_NODE,ARG_OF_PERICENTER,MEAN_ANOMALY,BSTAR,MEAN_MOTION_DOT,MEAN_MOTION_DDOT,TLE_LINE0,TLE_LINE1,TLE_LINE2,SEMIMAJOR_AXIS,PERIOD,APOGEE,PERIGEE,DECAYED
53537.0,STARLINK-4120,PAYLOAD,2023-11-28 19:40:41,15.08856445,0.0001514,53.2163,208.5018,97.2695,262.8469,0.00054541,8.407e-05,0.0,0 STARLINK-4120,1 53537U 22101L   23332.81992063  .00008407  00000-0  54541-3 0  9991,2 53537  53.2163 208.5018 0001514  97.2695 262.8469 15.08856445 70581,6917.83,95.437,540.742,538.648,0.0
53537.0,STARLINK-4120,PAYLOAD,2023-11-28 21:16:04,15.08868456,0.0001668,53.2173,208.2082,112.5298,247.5871,0.00092245,0.00014435,0.0,0 STARLINK-4120,1 53537U 22101L   23332.88616052  .00014435  00000-0  92245-3 0  9990,2 53537  53.2173 208.2082 0001668 112.5298 247.5871 15.08868456 70593,6917.793,95.436,540.812,538.505,0.0
53537.0,STARLINK-4120,PAYLOAD,2023-11-29 19:31:27,15.08879406,0.0001657,53.2172,204.0467,109.0199,251.0973,0.0015606,0.00024663,0.0,0 STARLINK-4120,1 53537U 22101L   23333.81351764  .00024663  00000-0  15606-2 0  9999,2 53537  53.2172 204.0467 0001657 109.0199 251.0973 15.08879406 70738,6917.76,95.435,540.771,538.479,0.0
53537.0,STARLINK-4120,PAYLOAD,2023-11-30 00:17:38,15.08792297,0.0001415,53.2165,203.1512,103.2254,256.8896,-0.0019209,-0.00030689,0.0,0 STARLINK-4120,1 53537U 22101L   23334.01225130 -.00030689  00000-0 -19209-2 0  9999,2 53537  53.2165 203.1512 0001415 103.2254 256.8896 15.08792297 70763,6918.026,95.441,540.87,538.912,0.0
53537.0,STARLINK-4120,PAYLOAD,2023-11-30 19:22:15,15.08838812,0.0001244,53.2152,199.5809,105.9882,254.1247,0.0005245,8.069e-05,0.0,0 STARLINK-4120,1 53537U 22101L   23334.80712704  .00008069  00000-0  52450-3 0  9995,2 53537  53.2152 199.5809 0001244 105.9882 254.1247 15.08838812 70880,6917.884,95.438,540.61,538.888,0.0
53537.0,STARLINK-4120,PAYLOAD,2023-12-01 20:48:25,15.08855785,0.0001533,53.2151,194.823,84.868,275.2487,0.00070862,0.00011013,0.0,0 STARLINK-4120,1 53537U 22101L   23335.86696505  .00011013  00000-0  70862-3 0  9992,2 53537  53.2151 194.8230 0001533  84.8680 275.2487 15.08855785 71044,6917.832,95.437,540.758,538.637,0.0
53537.0,STARLINK-4120,PAYLOAD,2023-12-01 23:59:11,15.08860607,0.0001522,53.2153,194.2267,86.4314,273.6852,0.00078732,0.00012271,0.0,0 STARLINK-4120,1 53537U 22101L   23335.99944276  .00012271  00000-0  78732-3 0  9998,2 53537  53.2153 194.2267 0001522  86.4314 273.6852 15.08860607 71069,6917.817,95.436,540.735,538.63,0.0
53537.0,STARLINK-4120,PAYLOAD,2023-12-02 19:03:49,15.08845106,0.0002017,53.2158,190.6529,138.249,221.8657,1.5269e-05,-4.5e-07,0.0,0 STARLINK-4120,1 53537U 22101L   23336.79431777 -.00000045  00000-0  15269-4 0  9998,2 53537  53.2158 190.6529 0002017 138.2490 221.8657 15.08845106 71184,6917.865,95.437,541.125,538.334,0.0
53537.0,STARLINK-4120,PAYLOAD,2023-12-02 22:14:35,15.08846533,0.0001391,53.2148,190.0658,95.1358,264.9793,0.00010683,1.413e-05,0.0,0 STARLINK-4120,1 53537U 22101L   23336.92680118  .00001413  00000-0  10683-3 0  9991,2 53537  53.2148 190.0658 0001391  95.1358 264.9793 15.08846533 71205,6917.86,95.437,540.688,538.763,0.0
53537.0,STARLINK-4120,PAYLOAD,2023-12-03 14:08:27,15.08824582,0.0002159,53.2167,187.0816,149.399,210.7128,-0.00014058,-2.524e-05,0.0,0 STARLINK-4120,1 53537U 22101L   23337.58920890 -.00002524  00000-0 -14058-3 0  9994,2 53537  53.2167 187.0816 0002159 149.3990 210.7128 15.08824582 71307,6917.928,95.439,541.286,538.299,0.0
53537.0,STARLINK-4120,PAYLOAD,2023-12-03 20:30:00,15.08833838,0.0001695,53.216,185.8998,130.6904,229.4235,-7.0261e-05,-1.406e-05,0.0,0 STARLINK-4120,1 53537U 22101L   23337.85416928 -.00001406  00000-0 -70261-4 0  9993,2 53537  53.2160 185.8998 0001695 130.6904 229.4235 15.08833838 71343,6917.899,95.438,540.937,538.592,0.0
53537.0,STARLINK-4120,PAYLOAD,2023-12-03 23:40:46,15.08831105,0.0001493,53.2155,185.3066,120.4835,239.6305,-0.00014715,-2.629e-05,0.0,0 STARLINK-4120,1 53537U 22101L   23337.98665158 -.00002629  00000-0 -14715-3 0  9997,2 53537  53.2155 185.3066 0001493 120.4835 239.6305 15.08831105 71362,6917.908,95.438,540.805,538.74,0.0
53537.0,STARLINK-4120,PAYLOAD,2023-12-04 17:10:01,15.08834566,0.0001335,53.2154,182.037,89.3674,270.7471,7.6189e-05,9.25e-06,0.0,0 STARLINK-4120,1 53537U 22101L   23338.71529760  .00000925  00000-0  76189-4 0  9996,2 53537  53.2154 182.0370 0001335  89.3674 270.7471 15.08834566 71478,6917.897,95.438,540.686,538.838,0.0
53537.0,STARLINK-4120,PAYLOAD,2023-12-04 23:31:34,15.08835473,0.0001327,53.2152,180.8466,114.9281,245.1849,0.00014044,1.948e-05,0.0,0 STARLINK-4120,1 53537U 22101L   23338.98025689  .00001948  00000-0  14044-3 0  9993,2 53537  53.2152 180.8466 0001327 114.9281 245.1849 15.08835473 71516,6917.894,95.438,540.677,538.841,0.0
53537.0,STARLINK-4120,PAYLOAD,2023-12-05 17:00:48,15.08842265,0.000126,53.2151,177.5766,91.3134,268.8002,0.00029041,4.337e-05,0.0,0 STARLINK-4120,1 53537U 22101L   23339.70889642  .00004337  00000-0  29041-3 0  9999,2 53537  53.2151 177.5766 0001260  91.3134 268.8002 15.08842265 71624,6917.873,95.437,540.61,538.867,0.0
53537.0,STARLINK-4120,PAYLOAD,2023-12-05 23:22:20,15.08845977,0.000125,53.2151,176.387,94.7409,265.3726,0.00029928,4.479e-05,0.0,0 STARLINK-4120,1 53537U 22101L   23339.97385413  .00004479  00000-0  29928-3 0  9996,2 53537  53.2151 176.3870 0001250  94.7409 265.3726 15.08845977 71660,6917.862,95.437,540.592,538.862,0.0
53537.0,STARLINK-4120,PAYLOAD,2023-12-07 13:31:35,15.08842534,0.0001289,53.2154,169.2492,98.8227,261.2911,2.6067e-05,1.27e-06,0.0,0 STARLINK-4120,1 53537U 22101L   23341.56361059  .00000127  00000-0  26067-4 0  9992,2 53537  53.2154 169.2492 0001289  98.8227 261.2911 15.08842534 71903,6917.873,95.437,540.629,538.846,0.0
53537.0,STARLINK-4120,PAYLOAD,2023-12-08 11:46:59,15.08844198,0.0001173,53.2151,165.0867,97.5054,262.6071,3.2507e-05,2.3e-06,0.0,0 STARLINK-4120,1 53537U 22101L   23342.49096761  .00000230  00000-0  32507-4 0  9991,2 53537  53.2151 165.0867 0001173  97.5054 262.6071 15.08844198 72042,6917.868,95.437,540.544,538.921,0.0
53537.0,STARLINK-4120,PAYLOAD,2023-12-08 14:57:45,15.08848458,0.0001315,53.2149,164.4925,85.8253,274.289,9.2406e-05,1.183e-05,0.0,0 STARLINK-4120,1 53537U 22101L   23342.62344574  .00001183  00000-0  92406-4 0  9996,2 53537  53.2149 164.4925 0001315  85.8253 274.2890 15.08848458 72069,6917.855,95.437,540.629,538.81,0.0
53537.0,STARLINK-4120,PAYLOAD,2023-12-09 11:37:46,15.08839503,0.0001184,53.2146,160.6292,78.5003,281.6122,5.3233e-05,5.59e-06,0.0,0 STARLINK-4120,1 53537U 22101L   23343.48456975  .00000559  00000-0  53233-4 0  9991,2 53537  53.2146 160.6292 0001184  78.5003 281.6122 15.08839503 72192,6917.882,95.438,540.566,538.928,0.0
53537.0,STARLINK-4120,PAYLOAD,2023-12-09 14:48:33,15.08836573,0.0001138,53.216,160.0337,78.9517,281.1603,6.7939e-05,7.94e-06,0.0,0 STARLINK-4120,1 53537U 22101L   23343.61705500  .00000794  00000-0  67939-4 0  9996,2 53537  53.2160 160.0337 0001138  78.9517 281.1603 15.08836573 72211,6917.891,95.438,540.543,538.969,0.0
53537.0,STARLINK-4120,PAYLOAD,2023-12-10 11:28:34,15.08837099,0.0001502,53.2154,156.1658,93.1675,266.9489,2.2346e-05,6.8e-07,0.0,0 STARLINK-4120,1 53537U 22101L   23344.47817724  .00000068  00000-0  22346-4 0  9990,2 53537  53.2154 156.1658 0001502  93.1675 266.9489 15.08837099 72346,6917.889,95.438,540.793,538.715,0.0
53537.0,STARLINK-4120,PAYLOAD,2023-12-10 17:50:07,15.08837361,0.0001342,53.2161,154.9787,70.9429,289.1708,1.5386e-05,-4.3e-07,0.0,0 STARLINK-4120,1 53537U 22101L   23344.74313785 -.00000043  00000-0  15386-4 0  9998,2 53537  53.2161 154.9787 0001342  70.9429 289.1708 15.08837361 72382,6917.888,95.438,540.682,538.825,0.0
53537.0,STARLINK-4120,PAYLOAD,2023-12-11 14:30:07,15.08838764,0.0001223,53.2161,151.1117,86.6127,273.5005,0.0001263,1.723e-05,0.0,0 STARLINK-4120,1 53537U 22101L   23345.60425446  .00001723  00000-0  12630-3 0  9995,2 53537  53.2161 151.1117 0001223  86.6127 273.5005 15.08838764 72515,6917.884,95.438,540.595,538.903,0.0
53537.0,STARLINK-4120,PAYLOAD,2023-12-11 17:40:53,15.08840318,0.0001267,53.2161,150.5169,87.5372,272.5765,0.00013962,1.935e-05,0.0,0 STARLINK-4120,1 53537U 22101L   23345.73673375  .00001935  00000-0  13962-3 0  9999,2 53537  53.2161 150.5169 0001267  87.5372 272.5765 15.08840318 72537,6917.879,95.438,540.621,538.868,0.0
53537.0,STARLINK-4120,PAYLOAD,2023-12-12 14:20:54,15.0884303,0.0001286,53.2164,146.6504,91.9693,268.1447,0.00010286,1.35e-05,0.0,0 STARLINK-4120,1 53537U 22101L   23346.59785350  .00001350  00000-0  10286-3 0  9998,2 53537  53.2164 146.6504 0001286  91.9693 268.1447 15.08843030 72661,6917.871,95.437,540.626,538.846,0.0
53537.0,STARLINK-4120,PAYLOAD,2023-12-12 17:31:40,15.08844217,0.0001282,53.2163,146.0557,90.9042,269.2097,0.00011012,1.465e-05,0.0,0 STARLINK-4120,1 53537U 22101L   23346.73033254  .00001465  00000-0  11012-3 0  9998,2 53537  53.2163 146.0557 0001282  90.9042 269.2097 15.08844217 72688,6917.867,95.437,540.619,538.846,0.0
53537.0,STARLINK-4120,PAYLOAD,2023-12-13 14:11:41,15.08842233,0.0001356,53.2168,142.1911,98.1194,261.9952,5.3777e-05,5.68e-06,0.0,0 STARLINK-4120,1 53537U 22101L   23347.59145395  .00000568  00000-0  53777-4 0  9991,2 53537  53.2168 142.1911 0001356  98.1194 261.9952 15.08842233 72814,6917.874,95.437,540.677,538.8,0.0
53537.0,STARLINK-4120,PAYLOAD,2023-12-13 15:47:04,15.08842108,0.000135,53.2169,141.893,98.7524,261.3621,5.0152e-05,5.1e-06,0.0,0 STARLINK-4120,1 53537U 22101L   23347.65769377  .00000510  00000-0  50152-4 0  9991,2 53537  53.2169 141.8930 0001350  98.7524 261.3621 15.08842108 72828,6917.874,95.437,540.673,538.805,0.0
53537.0,STARLINK-4120,PAYLOAD,2023-12-14 14:02:28,15.0883787,0.0001338,53.2168,137.729,97.9156,262.1988,2.0137e-05,3.3e-07,0.0,0 STARLINK-4120,1 53537U 22101L   23348.58505778  .00000033  00000-0  20137-4 0  9997,2 53537  53.2168 137.7290 0001338  97.9156 262.1988 15.08837870 72968,6917.887,95.438,540.678,538.826,0.0
